[{"OBJECT_NAME":"LEGION 3","OBJECT_ID":"2024-146A","EPOCH":"2026-03-09T21:00:06.623424","MEAN_MOTION":15.16154835,"ECCENTRICITY":0.00135587,"INCLINATION":45.0003,"RA_OF_ASC_NODE":202.9187,"ARG_OF_PERICENTER":321.2712,"MEAN_ANOMALY":38.7194,"EPHEMERIS_TYPE":0,"CLASSIFICATION_TYPE":"U","NORAD_CAT_ID":60452,"ELEMENT_SET_NO":999,"REV_AT_EPOCH":8695,"BSTAR":0.00032920336,"MEAN_MOTION_DOT":6.211e-5,"MEAN_MOTION_DDOT":0},{"OBJECT_NAME":"SL-8 DEB","OBJECT_ID":"1974-071C","EPOCH":"2026-03-09T18:55:46.744608","MEAN_MOTION":15.16405778,"ECCENTRICITY":0.00028572,"INCLINATION":74.0336,"RA_OF_ASC_NODE":64.8288,"ARG_OF_PERICENTER":212.1551,"MEAN_ANOMALY":147.9471,"EPHEMERIS_TYPE":0,"CLASSIFICATION_TYPE":"U","NORAD_CAT_ID":8756,"ELEMENT_SET_NO":999,"REV_AT_EPOCH":87568,"BSTAR":0.0013012162,"MEAN_MOTION_DOT":0.00025337,"MEAN_MOTION_DDOT":0}]
